*******************************************************************************
 Revised: April 12, 2021                 Earth                              399
 
 GEOPHYSICAL PROPERTIES (revised May 9, 2022):
  Vol. Mean Radius (km)    = 6371.01+-0.02   Mass x10^24 (kg)= 5.97219+-0.0006
  Equ. radius, km          = 6378.137        Mass layers:
  Polar axis, km           = 6356.752          Atmos         = 5.1   x 10^18 kg
  Flattening               = 1/298.257223563   oceans        = 1.4   x 10^21 kg
  Density, g/cm^3          = 5.51              crust         = 2.6   x 10^22 kg
  J2 (IERS 2010)           = 0.00108262545     mantle        = 4.043 x 10^24 kg
  g_p, m/s^2  (polar)      = 9.8321863685      outer core    = 1.835 x 10^24 kg
  g_e, m/s^2  (equatorial) = 9.7803267715      inner core    = 9.675 x 10^22 kg
  g_o, m/s^2               = 9.82022         Fluid core rad  = 3480 km
  GM, km^3/s^2             = 398600.435436   Inner core rad  = 1215 km
  GM 1-sigma, km^3/s^2     =      0.0014     Escape velocity = 11.186 km/s
  Rot. Rate (rad/s)        = 0.00007292115   Surface area:
  Mean sidereal day, hr    = 23.9344695944     land          = 1.48 x 10^8 km
  Mean solar day 2000.0, s = 86400.002         sea           = 3.62 x 10^8 km
  Mean solar day 1820.0, s = 86400.0         Love no., k2    = 0.299
  Moment of inertia        = 0.3308          Atm. pressure   = 1.0 bar
  Mean surface temp (Ts), K= 287.6           Volume, km^3    = 1.08321 x 10^12
  Mean effect. temp (Te), K= 255             Magnetic moment = 0.61 gauss Rp^3
  Geometric albedo         = 0.367           Vis. mag. V(1,0)= -3.86
  Solar Constant (W/m^2)   = 1367.6 (mean), 1414 (perihelion), 1322 (aphelion)
 HELIOCENTRIC ORBIT CHARACTERISTICS:
  Obliquity to orbit, deg  = 23.4392911  Sidereal orb period  = 1.0000174 y
  Orbital speed, km/s      = 29.79       Sidereal orb period  = 365.25636 d
  Mean daily motion, deg/d = 0.9856474   Hill's sphere radius = 234.9       
*******************************************************************************


*******************************************************************************
Ephemeris / WWW_USER Thu Jan 29 16:04:06 2026 Pasadena, USA      / Horizons
*******************************************************************************
Target body name: Earth (399)                     {source: DE441}
Center body name: Solar System Barycenter (0)     {source: DE441}
Center-site name: BODY CENTER
*******************************************************************************
Start time      : A.D. 2000-Jan-01 00:00:00.0000 TDB
Stop  time      : A.D. 2050-Dec-31 00:00:00.0000 TDB
Step-size       : 1440 minutes
*******************************************************************************
Center geodetic : 0.0, 0.0, 0.0                   {E-lon(deg),Lat(deg),Alt(km)}
Center cylindric: 0.0, 0.0, 0.0                   {E-lon(deg),Dxy(km),Dz(km)}
Center radii    : (undefined)
Output units    : AU-D
Calendar mode   : Mixed Julian/Gregorian
Output type     : GEOMETRIC cartesian states
Output format   : 2 (position and velocity)
Reference frame : ICRF
*******************************************************************************
            JDTDB,            Calendar Date (TDB),                      X,                      Y,                      Z,                     VX,                     VY,                     VZ,
**************************************************************************************************************************************************************************************************
$$SOE
2458808.500000000, A.D. 2019-Nov-21 00:00:00.0000,  5.187746137510889E-01,  7.764163146324305E-01,  3.365865651980560E-01, -1.489224692146140E-02,  8.288474480969425E-03,  3.593025449135836E-03,
2458809.500000000, A.D. 2019-Nov-22 00:00:00.0000,  5.038021268145322E-01,  7.845864384854656E-01,  3.401283687260404E-01, -1.505199254957974E-02,  8.051263524018370E-03,  3.490363278484898E-03,
2458810.500000000, A.D. 2019-Nov-23 00:00:00.0000,  4.886721263216799E-01,  7.925178315771925E-01,  3.435668572579995E-01, -1.520724492427399E-02,  7.811023382428233E-03,  3.386398057112303E-03,
2458811.500000000, A.D. 2019-Nov-24 00:00:00.0000,  4.733891934552864E-01,  8.002075018073906E-01,  3.469007378833503E-01, -1.535782802339738E-02,  7.567834125500368E-03,  3.281152484786956E-03,
2458812.500000000, A.D. 2019-Nov-25 00:00:00.0000,  4.579580836125740E-01,  8.076525550067346E-01,  3.501287479411093E-01, -1.550357179094151E-02,  7.321811506710396E-03,  3.174664574454517E-03,
2458813.500000000, A.D. 2019-Nov-26 00:00:00.0000,  4.423837133155306E-01,  8.148502294593410E-01,  3.532496705454223E-01, -1.564432632025757E-02,  7.073103582181529E-03,  3.066987629835691E-03,
2458814.500000000, A.D. 2019-Nov-27 00:00:00.0000,  4.266711338211616E-01,  8.217979239385546E-01,  3.562623487087638E-01, -1.577997358661538E-02,  6.821881280612244E-03,  2.958187463740601E-03,
2458815.500000000, A.D. 2019-Nov-28 00:00:00.0000,  4.108254957792035E-01,  8.284932141275496E-01,  3.591656955014983E-01, -1.591043316654868E-02,  6.568325167162873E-03,  2.848337443263479E-03,
2458816.500000000, A.D. 2019-Nov-29 00:00:00.0000,  3.948520118416071E-01,  8.349338555047600E-01,  3.619586987734225E-01, -1.603566065272526E-02,  6.312612291902693E-03,  2.737512856656371E-03,
2458817.500000000, A.D. 2019-Nov-30 00:00:00.0000,  3.787559239422836E-01,  8.411177746516203E-01,  3.646404205964902E-01, -1.615564036386717E-02,  6.054906635847531E-03,  2.625786221677303E-03,
2458818.500000000, A.D. 2019-Dec-01 00:00:00.0000,  3.625424793628623E-01,  8.470430535449951E-01,  3.672099929273004E-01, -1.627037565343942E-02,  5.795354696269238E-03,  2.513224500239477E-03,
2458819.500000000, A.D. 2019-Dec-02 00:00:00.0000,  3.462169163293778E-01,  8.527079118294631E-01,  3.696666114972867E-01, -1.637987997391414E-02,  5.534085629263979E-03,  2.399888285021384E-03,
2458820.500000000, A.D. 2019-Dec-03 00:00:00.0000,  3.297844573350525E-01,  8.581106907964122E-01,  3.720095296590590E-01, -1.648417053900558E-02,  5.271214192656539E-03,  2.285832405885407E-03,
2458821.500000000, A.D. 2019-Dec-04 00:00:00.0000,  3.132503072764019E-01,  8.632498409179381E-01,  3.742380532426652E-01, -1.658326501176437E-02,  5.006844636307924E-03,  2.171107225899748E-03,
2458822.500000000, A.D. 2019-Dec-05 00:00:00.0000,  2.966196535645870E-01,  8.681239131547127E-01,  3.763515367896400E-01, -1.667718074372669E-02,  4.741074186117441E-03,  2.055760016612523E-03,
2458823.500000000, A.D. 2019-Dec-06 00:00:00.0000,  2.798976660615286E-01,  8.727315532054395E-01,  3.783493810274386E-01, -1.676593574077795E-02,  4.473995358220303E-03,  1.939836013912878E-03,
2458824.500000000, A.D. 2019-Dec-07 00:00:00.0000,  2.630894955446715E-01,  8.770714973354586E-01,  3.802310311424323E-01, -1.684955050273643E-02,  4.205696774320446E-03,  1.823378933851444E-03,
2458825.500000000, A.D. 2019-Dec-08 00:00:00.0000,  2.462002702279908E-01,  8.811425682362058E-01,  3.819959752514394E-01, -1.692804994290245E-02,  3.936262413780134E-03,  1.706430843641947E-03,
2458826.500000000, A.D. 2019-Dec-09 00:00:00.0000,  2.292350906426822E-01,  8.849436694006596E-01,  3.836437424093887E-01, -1.700146462122029E-02,  3.665769432109678E-03,  1.589031366405708E-03,
2458827.500000000, A.D. 2019-Dec-10 00:00:00.0000,  2.121990239475933E-01,  8.884737767407264E-01,  3.851738995155451E-01, -1.706983052633720E-02,  3.394284912558571E-03,  1.471216297145313E-03,
2458828.500000000, A.D. 2019-Dec-11 00:00:00.0000,  1.950970994752483E-01,  8.917319267003702E-01,  3.865860466283154E-01, -1.713318672645082E-02,  3.121862256480059E-03,  1.353015857257169E-03,
2458829.500000000, A.D. 2019-Dec-12 00:00:00.0000,  1.779343078626552E-01,  8.947172010188484E-01,  3.878798105208646E-01, -1.719157053493632E-02,  2.848538303054537E-03,  1.234453007892944E-03,
2458830.500000000, A.D. 2019-Dec-13 00:00:00.0000,  1.607156061651132E-01,  8.974287095281822E-01,  3.890548368184119E-01, -1.724501050243219E-02,  2.574332498065087E-03,  1.115542404086637E-03,
2458831.500000000, A.D. 2019-Dec-14 00:00:00.0000,  1.434459306004301E-01,  8.998655736322346E-01,  3.901107816599212E-01, -1.729351843745540E-02,  2.299249225619355E-03,  9.962905738313107E-04,
2458832.500000000, A.D. 2019-Dec-15 00:00:00.0000,  1.261302169737687E-01,  9.020269138813323E-01,  3.910473043051919E-01, -1.733708237509719E-02,  2.023283630310019E-03,  8.766976489980586E-04,
2458833.500000000, A.D. 2019-Dec-16 00:00:00.0000,  1.087734268184234E-01,  9.039118448208256E-01,  3.918640622096121E-01, -1.737566246063039E-02,  1.746430112609865E-03,  7.567605017233121E-04,
2458834.500000000, A.D. 2019-Dec-17 00:00:00.0000,  9.138057566285558E-02,  9.055194789658961E-01,  3.925607096961351E-01, -1.740919090242192E-02,  1.468691753222981E-03,  6.364766723735753E-04,
2458835.500000000, A.D. 2019-Dec-18 00:00:00.0000,  7.395675931235279E-02,  9.068489398509655E-01,  3.931369006108786E-01, -1.743757586386305E-02,  1.190088752039040E-03,  5.158482770081673E-04,
2458836.500000000, A.D. 2019-Dec-19 00:00:00.0000,  5.650717472579050E-02,  9.078993824512693E-01,  3.935922945910870E-01, -1.746070814185797E-02,  9.106645988416889E-04,  3.948852447321866E-04,
2458837.500000000, A.D. 2019-Dec-20 00:00:00.0000,  3.903713341790837E-02,  9.086700184616416E-01,  3.939265661013983E-01, -1.747846922349325E-02,  6.304896276017362E-04,  2.736076002130317E-04,
2458838.500000000, A.D. 2019-Dec-21 00:00:00.0000,  2.155206655430287E-02,  9.091601439251035E-01,  3.941394152750923E-01, -1.749073973084426E-02,  3.496622282361598E-04,  1.520468076415609E-04,
2458839.500000000, A.D. 2019-Dec-22 00:00:00.0000,  4.057521601807486E-03,  9.093691670457064E-01,  3.942305796707085E-01, -1.749740782678199E-02,  6.830803420096382E-05,  3.024626649770322E-05,
